ONEWEB-0319             
1 49105U 21075AG  26004.83468916  .00000024  00000+0  29486-4 0  9999
2 49105  87.9086  38.3453 0002330 100.0865 260.0530 13.17647738212090
ONEWEB-0323             
1 49106U 21075AH  26004.58831086  .00000140  00000+0  35242-3 0  9999
2 49106  87.8924  23.1343 0002210 105.8324 254.3049 13.12442004213097
ONEWEB-0329             
1 49107U 21075AJ  26004.61534372  .00000060  00000+0  12064-3 0  9990
2 49107  87.9083  38.3904 0001751  98.8303 261.3027 13.17649119212042
ONEWEB-0330             
1 49108U 21075AK  26004.61617660  .00000085  00000+0  18496-3 0  9995
2 49108  87.9085  38.3968 0001581 101.4758 258.6551 13.17648740212085
ONEWEB-0292             
1 49186U 21083A   26004.68843737 -.00000229  00000+0 -66302-3 0  9994
2 49186  87.8975 352.7497 0001878  89.5217 270.6127 13.13469415209460
ONEWEB-0303             
1 49187U 21083B   26004.71429336 -.00000076  00000+0 -22462-3 0  9993
2 49187  87.9174   7.9160 0001875  92.5791 267.5556 13.18685834208434
ONEWEB-0306             
1 49188U 21083C   26004.70440552  .00001266  00000+0  31779-2 0  9996
2 49188  87.9175   7.9022 0001592  83.7565 276.3748 13.18679853208479
ONEWEB-0307             
1 49189U 21083D   26004.68250253 -.00000567  00000+0 -15888-2 0  9999
2 49189  87.8971 352.7417 0001742  86.7761 273.3567 13.13469891209460
